*******************************************************************************
JPL/HORIZONS               804 Hispania (A915 FK)          2020-Jun-22 09:29:44
Rec #:     804 (+COV) Soln.date: 2020-May-20_01:13:01   # obs: 2662 (1907-2020)
 
IAU76/J2000 helio. ecliptic osc. elements (au, days, deg., period=Julian yrs):
 
  EPOCH=  2455446.5 ! 2010-Sep-07.00 (TDB)         Residual RMS= .32789
   EC= .1389027493491598   QR= 2.445478955299278   TP= 2456243.0240108636
   OM= 347.764965847419    W=  342.7106728156915   IN= 15.36530609313681
   A= 2.839956756859832    MA= 195.9654411414477   ADIST= 3.234434558420386
   PER= 4.78603            N= .205937991           ANGMOM= .02870825
   DAN= 2.45903            DDN= 3.21103            L= 331.0586208
   B= -4.5166579           MOID= 1.43915999        TP= 2012-Nov-11.5240108636
 
Asteroid physical parameters (km, seconds, rotational period in hours):
   GM= n.a.                RAD= 68.976             ROTPER= 14.845
   H= 7.9                  G= .180                 B-V= .727
                           ALBEDO= .054            STYP= C
 
ASTEROID comments: 
1: soln ref.= JPL#86, OCC=0
2: source=ORB
*******************************************************************************
 
 
*******************************************************************************
Ephemeris / WWW_USER Mon Jun 22 09:29:44 2020 Pasadena, USA      / Horizons
*******************************************************************************
Target body name: 804 Hispania (A915 FK)          {source: JPL#86}
Center body name: Solar System Barycenter (0)     {source: DE431}
Center-site name: BODY CENTER
*******************************************************************************
Start time      : A.D. 1969-Jun-28 00:00:00.0000 TDB
Stop  time      : A.D. 2071-May-04 00:00:00.0000 TDB
Step-size       : 7200 minutes
*******************************************************************************
Center geodetic : 0.00000000,0.00000000,0.0000000 {E-lon(deg),Lat(deg),Alt(km)}
Center cylindric: 0.00000000,0.00000000,0.0000000 {E-lon(deg),Dxy(km),Dz(km)}
Center radii    : (undefined)                                                  
Small perturbers: Yes                             {source: SB431-N16}
Output units    : AU-D
Output type     : GEOMETRIC cartesian states
Output format   : 2 (position and velocity)
Reference frame : Ecliptic of J2000.0
*******************************************************************************
Initial IAU76/J2000 heliocentric ecliptic osculating elements (au, days, deg.):
  EPOCH=  2455446.5 ! 2010-Sep-07.00 (TDB)         Residual RMS= .32789        
   EC= .1389027493491598   QR= 2.445478955299278   TP= 2456243.0240108636      
   OM= 347.764965847419    W=  342.7106728156915   IN= 15.36530609313681       
  Equivalent ICRF heliocentric equatorial cartesian coordinates (au, au/d):
   X=-3.078934717735975E+00  Y= 8.403754936819081E-01  Z= 4.466031086559468E-01
  VX=-2.293162537942995E-03 VY=-6.662562860827534E-03 VZ=-5.458978683147390E-03
Asteroid physical parameters (km, seconds, rotational period in hours):        
   GM= n.a.                RAD= 68.976             ROTPER= 14.845              
   H= 7.9                  G= .180                 B-V= .727                   
                           ALBEDO= .054            STYP= C                     
*******************************************************************************
            JDTDB,            Calendar Date (TDB),        delta-T,                      X,                      Y,                      Z,                     VX,                     VY,                     VZ,
******************************************************************************************************************************************************************************************************************
$$SOE
2446840.500000000, A.D. 1987-Feb-14 00:00:00.0000,      55.185084, -3.140896082122814E+00, -1.633015317015198E-01, -2.220983953285518E-01,  1.416751385460325E-03, -8.758187623572758E-03, -2.270864443019574E-03,
2446845.500000000, A.D. 1987-Feb-19 00:00:00.0000,      55.185188, -3.133440588116961E+00, -2.070707981849036E-01, -2.334259308337523E-01,  1.565480920622342E-03, -8.749167299613813E-03, -2.260053330442938E-03,
2446850.500000000, A.D. 1987-Feb-24 00:00:00.0000,      55.185285, -3.125240945162879E+00, -2.507896759135210E-01, -2.446979621891080E-01,  1.714407093011394E-03, -8.738029701689699E-03, -2.248662351443284E-03,
2446855.500000000, A.D. 1987-Mar-01 00:00:00.0000,      55.185374, -3.116296228529693E+00, -2.944475421324323E-01, -2.559115835861248E-01,  1.863506444139236E-03, -8.724760258875473E-03, -2.236688915199194E-03,
2446860.500000000, A.D. 1987-Mar-06 00:00:00.0000,      55.185452, -3.106605631938556E+00, -3.380337009842710E-01, -2.670638762604535E-01,  2.012755048920504E-03, -8.709344302210965E-03, -2.224130430653041E-03,
2446865.500000000, A.D. 1987-Mar-11 00:00:00.0000,      55.185517, -3.096168469937011E+00, -3.815373830356095E-01, -2.781519084977336E-01,  2.162128499134329E-03, -8.691767071377424E-03, -2.210984309337813E-03,
2446870.500000000, A.D. 1987-Mar-16 00:00:00.0000,      55.185570, -3.084984180355899E+00, -4.249477448377929E-01, -2.891727356538541E-01,  2.311601886929095E-03, -8.672013721840774E-03, -2.197247968323351E-03,
2446875.500000000, A.D. 1987-Mar-21 00:00:00.0000,      55.185611, -3.073052326848943E+00, -4.682538685249338E-01, -3.001234001903246E-01,  2.461149788223275E-03, -8.650069332579190E-03, -2.182918833319967E-03,
2446880.500000000, A.D. 1987-Mar-26 00:00:00.0000,      55.185642, -3.060372601515772E+00, -5.114447614519996E-01, -3.110009317255976E-01,  2.610746245923311E-03, -8.625918914386741E-03, -2.167994341954049E-03,
2446885.500000000, A.D. 1987-Mar-31 00:00:00.0000,      55.185661, -3.046944827609265E+00, -5.545093558758136E-01, -3.218023471031729E-01,  2.760364752991903E-03, -8.599547418737126E-03, -2.152471947203331E-03,
2446890.500000000, A.D. 1987-Apr-05 00:00:00.0000,      55.185668, -3.032768962327793E+00, -5.974365086818472E-01, -3.325246504772472E-01,  2.909978235428333E-03, -8.570939747246160E-03, -2.136349120977021E-03,
2446895.500000000, A.D. 1987-Apr-10 00:00:00.0000,      55.185661, -3.017845099692712E+00, -6.402150011599659E-01, -3.431648334166177E-01,  3.059559035187143E-03, -8.540080761804772E-03, -2.119623357839203E-03,
2446900.500000000, A.D. 1987-Apr-15 00:00:00.0000,      55.185641, -3.002173473511449E+00, -6.828335388326719E-01, -3.537198750275867E-01,  3.209078893014170E-03, -8.506955295453485E-03, -2.102292178888869E-03,
2446905.500000000, A.D. 1987-Apr-20 00:00:00.0000,      55.185609, -2.985754460426714E+00, -7.252807513396711E-01, -3.641867420967030E-01,  3.358508931156544E-03, -8.471548164044452E-03, -2.084353135817626E-03,
2446910.500000000, A.D. 1987-Apr-25 00:00:00.0000,      55.185567, -2.968588583052559E+00, -7.675451923827690E-01, -3.745623892542805E-01,  3.507819635906642E-03, -8.433844178709756E-03, -2.065803815167033E-03,
2446915.500000000, A.D. 1987-Apr-30 00:00:00.0000,      55.185514, -2.950676513198188E+00, -8.096153397351216E-01, -3.848437591597433E-01,  3.656980839952605E-03, -8.393828159137473E-03, -2.046641842805130E-03,
2446920.500000000, A.D. 1987-May-05 00:00:00.0000,      55.185450, -2.932019075180467E+00, -8.514795953188473E-01, -3.950277827099214E-01,  3.805961704557327E-03, -8.351484947631828E-03, -2.026864888628496E-03,
2446925.500000000, A.D. 1987-May-10 00:00:00.0000,      55.185375, -2.912617249225857E+00, -8.931262853548851E-01, -4.051113792714134E-01,  3.954730701634412E-03, -8.306799423958360E-03, -2.006470671486246E-03,
2446930.500000000, A.D. 1987-May-15 00:00:00.0000,      55.185288, -2.892472174962035E+00, -9.345436605890964E-01, -4.150914569381205E-01,  4.103255595787675E-03, -8.259756521004906E-03, -1.985456964328175E-03,
2446935.500000000, A.D. 1987-May-20 00:00:00.0000,      55.185192, -2.871585154999381E+00, -9.757198965990201E-01, -4.249649128151380E-01,  4.251503426316496E-03, -8.210341241413318E-03, -1.963821599609259E-03,
2446940.500000000, A.D. 1987-May-25 00:00:00.0000,      55.185090, -2.849957658603035E+00, -1.016643094186372E+00, -4.347286333304861E-01,  4.399440488941612E-03, -8.158538675236778E-03, -1.941562475030444E-03,
2446945.500000000, A.D. 1987-May-30 00:00:00.0000,      55.184981, -2.827591325457155E+00, -1.057301279860149E+00, -4.443794945763946E-01,  4.547032317225230E-03, -8.104334018488023E-03, -1.918677559610014E-03,
2446950.500000000, A.D. 1987-Jun-04 00:00:00.0000,      55.184864, -2.804487969522302E+00, -1.097682406414315E+00, -4.539143626815930E-01,  4.694243663958054E-03, -8.047712592416163E-03, -1.895164899996997E-03,
2446955.500000000, A.D. 1987-Jun-09 00:00:00.0000,      55.184739, -2.780649582985333E+00, -1.137774353603789E+00, -4.633300942156222E-01,  4.841038482795629E-03, -7.988659863571905E-03, -1.871022626964670E-03,
2446960.500000000, A.D. 1987-Jun-14 00:00:00.0000,      55.184609, -2.756078340300322E+00, -1.177564928923117E+00, -4.726235366260915E-01,  4.987379910214185E-03, -7.927161464857431E-03, -1.846248962101105E-03,
2446965.500000000, A.D. 1987-Jun-19 00:00:00.0000,      55.184475, -2.730776602319035E+00, -1.217041868493238E+00, -4.817915287100009E-01,  5.133230247704584E-03, -7.863203217728494E-03, -1.820842224757586E-03,
2446970.500000000, A.D. 1987-Jun-24 00:00:00.0000,      55.184339, -2.704746920510090E+00, -1.256192838062284E+00, -4.908309011205710E-01,  5.278550944098789E-03, -7.796771155610518E-03, -1.794800839308652E-03,
2446975.500000000, A.D. 1987-Jun-29 00:00:00.0000,      55.184201, -2.677992041266231E+00, -1.295005434126471E+00, -4.997384769111991E-01,  5.423302577993176E-03, -7.727851548510496E-03, -1.768123342743047E-03,
